COSMOS 2425 (716)       
1 29670U 06062A   18222.58240718  .00000020  00000-0  10000-3 0  9994
2 29670  65.2528 290.6986 0020022 342.6594  59.9769  2.13105081 90479
COSMOS 2426 (717)       
1 29671U 06062B   18223.24709394  .00000017  00000-0  10000-3 0  9995
2 29671  65.2690 290.7760 0019193 168.6859 239.2203  2.13103037 90495
COSMOS 2433 (720)       
1 32275U 07052A   18221.75198282 -.00000001  00000-0  10000-3 0  9995
2 32275  65.7145  51.5646 0000576 229.5822  87.0982  2.13104546 83960
COSMOS 2432 (719)       
1 32276U 07052B   18223.03185097 -.00000011  00000-0  10000-3 0  9990
2 32276  65.7262  51.6002 0010194 344.6954 185.7253  2.13103993 83995
COSMOS 2434 (721)       
1 32393U 07065A   18222.54910076  .00000022  00000-0  00000-0 0  9999
2 32393  64.8668 289.6489 0004154 136.6162 319.5217  2.13103078 82693
COSMOS 2436 (723)       
1 32395U 07065C   18222.82820752  .00000021  00000-0  10000-3 0  9996
2 32395  64.8768 289.6913 0013596 357.0547   3.9773  2.13104473 82639
COSMOS 2456 (730)       
1 36111U 09070A   18222.43868905  .00000005  00000-0  00000+0 0  9990
2 36111  64.1884 169.2461 0006124 303.9479 239.8805  2.13103045 67357
COSMOS 2457 (733)       
1 36112U 09070B   18222.27102801  .00000005  00000-0  00000+0 0  9999
2 36112  64.1705 169.1606 0005556 189.0808 352.7299  2.13101646 67354
COSMOS 2458 (734)       
1 36113U 09070C   18222.74968332  .00000005  00000-0  10000-3 0  9996
2 36113  64.1766 169.1567 0002643 326.0430 269.7593  2.13096740 67369
COSMOS 2459 (731)       
1 36400U 10007A   18222.74902163 -.00000010  00000-0  10000-3 0  9994
2 36400  65.6222  50.5856 0026377 356.4814 223.6088  2.13102270 65719
COSMOS 2461 (735)       
1 36401U 10007B   18222.81739029 -.00000010  00000-0  10000-3 0  9992
2 36401  65.6118  50.5579 0008858  71.5755 111.5576  2.13102275 65711
COSMOS 2460 (732)       
1 36402U 10007C   18222.58610925 -.00000008  00000-0  10000-3 0  9997
2 36402  65.6059  50.5335 0002269  85.7234 320.4793  2.13101664 65718
COSMOS 2464 (736)       
1 37139U 10041C   18221.74939024  .00000023  00000-0  00000+0 0  9995
2 37139  64.4705 289.4565 0021919  10.1178  60.3090  2.13102738 61765
COSMOS 2471 (701K)      
1 37372U 11009A   18222.74658264 -.00000010  00000-0  00000+0 0  9991
2 37372  65.6022  50.4726 0007082 224.3156  90.1256  2.13107662 57989
COSMOS 2474 (742)       
1 37829U 11055A   18222.64388691  .00000006  00000-0  00000+0 0  9996
2 37829  64.5122 169.9805 0010468 252.9818 306.1607  2.13101970 53356
COSMOS 2476 (744)       
1 37867U 11064A   18222.60444837  .00000006  00000-0  00000-0 0  9990
2 37867  64.4926 170.0426 0020127 244.7235 330.2199  2.13101990 52700
COSMOS 2477 (745)       
1 37868U 11064B   18222.81610900  .00000006  00000-0  00000-0 0  9990
2 37868  64.5003 170.0841 0017905 246.3872 309.8001  2.13101888 52669
COSMOS 2475 (743)       
1 37869U 11064C   18222.88021075  .00000006  00000-0  00000-0 0  9997
2 37869  64.5074 170.0768 0022496 268.2608 293.8768  2.13102233 52675
COSMOS 2485 (747)       
1 39155U 13019A   18222.49910525  .00000007  00000-0  00000-0 0  9994
2 39155  64.6613 170.1672 0020432 240.1159 298.8728  2.13102091 41174
COSMOS 2492 (754)       
1 39620U 14012A   18222.65784258 -.00000010  00000-0  10000-3 0  9994
2 39620  65.4948  50.4084 0013352 337.2165 358.3848  2.13103428 34123
COSMOS 2500 (755)       
1 40001U 14032A   18222.64183432 -.00000010  00000-0  00000-0 0  9993
2 40001  65.4360  50.3740 0005315 185.6580 359.8219  2.13102811 32345
COSMOS 2501 (702K)      
1 40315U 14075A   18221.72987656  .00000020  00000-0  00000+0 0  9995
2 40315  64.1944 290.6489 0016997 207.1356 159.7776  2.13098764 28739
COSMOS 2514 (751)       
1 41330U 16008A   18222.63243662 -.00000010  00000-0  00000+0 0  9994
2 41330  65.2376  50.4148 0008211 204.0885 155.1835  2.13103307 19506
COSMOS 2516 (753)       
1 41554U 16032A   18223.25160625  .00000016  00000-0  00000+0 0  9990
2 41554  64.4137 290.4763 0013928 216.7384 148.5248  2.13101776 17133
COSMOS 2522 (752)       
1 42939U 17055A   18222.56613844  .00000020  00000-0  00000-0 0  9999
2 42939  64.6462 290.4831 0008661 238.7969 187.0253  2.13101943  6870
